ORBCOMM FM33            
1 25983U 99065D   24197.88994208  .00002191  00000+0  76484-3 0  9991
2 25983  45.0272 155.5034 0006959 175.5560 184.5352 14.37945229287629
ORBCOMM FM36            
1 25984U 99065E   24197.81776852  .00001469  00000+0  55085-3 0  9999
2 25984  45.0387 242.4743 0002389   0.1496 359.9352 14.35863213286036
ORBCOMM FM35            
1 25985U 99065F   24197.81141924  .00001065  00000+0  41693-3 0  9998
2 25985  45.0390 245.3874 0003113 195.9476 164.1274 14.35367392286424
ORBCOMM FM34            
1 25986U 99065G   24198.20077244  .00001173  00000+0  45425-3 0  9993
2 25986  45.0383 244.0971 0001363 116.4223 243.6765 14.35346178286634
ORBCOMM FM38            
1 33060U 08031A   24197.89680082  .00003287  00000+0  47949-3 0  9993
2 33060  48.4403 114.1744 0005360  36.9762 323.1521 14.77966368864941
ORBCOMM FM41            
1 33061U 08031B   24197.90218959  .00003266  00000+0  47974-3 0  9991
2 33061  48.4436 120.9277 0004609  21.7775  58.1292 14.77690171864446
ORBCOMM FM29            
1 33062U 08031C   24197.88665095  .00003697  00000+0  53984-3 0  9992
2 33062  48.4386 129.0361 0006504  20.1616  24.8571 14.77638565864357
ORBCOMM FM39            
1 33063U 08031D   24197.88991581  .00002964  00000+0  44935-3 0  9997
2 33063  48.4395 150.0542 0007651 354.7754   5.3079 14.76580081864047
